TYVAK-0130              
1 48606U 21041BF  26068.48452211  .00008857  00000+0  35198-3 0  9997
2 48606  52.9967 128.6030 0008953 215.1647 144.8760 15.26049141265157
STARLINK-30374          
1 57809U 23138B   26068.76877028 -.00000468  00000+0 -74695-5 0  9998
2 57809  43.0014 233.4579 0001723 289.6871  70.3794 15.27584414138755
